[{"OBJECT_NAME":"STARLINK-30091","OBJECT_ID":"2023-107G","EPOCH":"2026-03-09T02:58:36.288768","MEAN_MOTION":15.27580258,"ECCENTRICITY":0.00020649,"INCLINATION":42.9976,"RA_OF_ASC_NODE":339.0335,"ARG_OF_PERICENTER":272.7411,"MEAN_ANOMALY":87.3204,"EPHEMERIS_TYPE":0,"CLASSIFICATION_TYPE":"U","NORAD_CAT_ID":57463,"ELEMENT_SET_NO":999,"REV_AT_EPOCH":14506,"BSTAR":0.00012695736,"MEAN_MOTION_DOT":3.233e-5,"MEAN_MOTION_DDOT":0},{"OBJECT_NAME":"CZ-6A DEB","OBJECT_ID":"2022-151CC","EPOCH":"2026-03-09T19:21:24.185952","MEAN_MOTION":15.21292269,"ECCENTRICITY":0.00294338,"INCLINATION":98.6347,"RA_OF_ASC_NODE":160.1892,"ARG_OF_PERICENTER":145.6687,"MEAN_ANOMALY":214.6455,"EPHEMERIS_TYPE":0,"CLASSIFICATION_TYPE":"U","NORAD_CAT_ID":54333,"ELEMENT_SET_NO":999,"REV_AT_EPOCH":17712,"BSTAR":0.0073643753,"MEAN_MOTION_DOT":0.00170206,"MEAN_MOTION_DDOT":0}]
